1 44734U 19074X   25067.84967868  .00012303  00000-0  84341-3 0  9991
2 44734  53.0540 308.9386 0001257  86.5502 273.5631 15.06397994294701
1 44734U 19074X   25068.04871872  .00013285  00000-0  90897-3 0  9996
2 44734  53.0543 308.0452 0001271  86.5653 273.5482 15.06403901294735
1 44734U 19074X   25068.64584503  .00008776  00000-0  60738-3 0  9994
2 44734  53.0539 305.3644 0001359  98.7301 261.3842 15.06398258294996
1 44734U 19074X   25068.91123455  .00007854  00000-0  54561-3 0  9992
2 44734  53.0538 304.1726 0001151  85.4441 274.6679 15.06396277294861
1 44734U 19074X   25068.91123455  .00007854  00000-0  54561-3 0  9992
2 44734  53.0538 304.1726 0001151  85.4441 274.6679 15.06396277295031
1 44734U 19074X   25069.84009032  .00011185  00000-0  76841-3 0  9996
2 44734  53.0538 300.0026 0001404  96.7930 263.3219 15.06409218295000
1 44734U 19074X   25070.03912768  .00011763  00000-0  80694-3 0  9991
2 44734  53.0535 299.1093 0001333  96.2794 263.8347 15.06416113295204
1 44734U 19074X   25070.03912768  .00011763  00000-0  80694-3 0  9991
2 44734  53.0535 299.1093 0001333  96.2794 263.8347 15.06416113295035
1 44734U 19074X   25070.90163231  .00004630  00000-0  32941-3 0  9997
2 44734  53.0529 295.2364 0001469  93.4774 266.6383 15.06412571295331
1 44734U 19074X   25071.63143843  .00004660  00000-0  33138-3 0  9997
2 44734  53.0513 291.9594 0001498  92.5213 267.5947 15.06419846295273
1 44734U 19074X   25071.89682000  .00006823  00000-0  47612-3 0  9993
2 44734  53.0528 290.7692 0001435  90.8627 269.2526 15.06427313295311
1 44734U 19074X   25072.29489934  .00002966  00000-0  21783-3 0  9994
2 44734  53.0524 288.9806 0001423  87.1966 272.9186 15.06416617295548
1 44734U 19074X   25072.29489934  .00002966  00000-0  21783-3 0  9994
2 44734  53.0524 288.9806 0001423  87.1966 272.9186 15.06416617295379
1 44734U 19074X   25072.82568176 -.00005916  00000-0 -37870-3 0  9993
2 44734  53.0531 286.6003 0001442  86.1690 273.9464 15.06390225295629
1 44734U 19074X   25072.82568176 -.00005916  00000-0 -37870-3 0  9993
2 44734  53.0531 286.6003 0001442  86.1690 273.9464 15.06390225295450
1 44734U 19074X   25073.29011441  .00000577  00000-0  57610-4 0  9994
2 44734  53.0531 284.5156 0001421  81.7636 278.3515 15.06389528295522
1 44734U 19074X   25073.88724121  .00008461  00000-0  58632-3 0  9999
2 44734  53.0527 281.8345 0001410  80.5034 279.6114 15.06393845295788
1 44734U 19074X   25073.95358832  .00008913  00000-0  61658-3 0  9993
2 44734  53.0525 281.5366 0001423  79.9267 280.1882 15.06394926295623
1 44734U 19074X   25074.55071395  .00003647  00000-0  26367-3 0  9993
2 44734  53.0515 278.8558 0001401  79.6842 280.4305 15.06391372295889
1 44734U 19074X   25074.55071395  .00003647  00000-0  26367-3 0  9993
2 44734  53.0515 278.8558 0001401  79.6842 280.4305 15.06391372295711
1 44734U 19074X   25074.88244965  .00004218  00000-0  30195-3 0  9993
2 44734  53.0524 277.3662 0001422  79.0771 281.0378 15.06394437295766
1 44734U 19074X   25075.81130150  .00006119  00000-0  42921-3 0  9999
2 44734  53.0524 273.1965 0001396  80.8131 279.3016 15.06407822296073
1 44734U 19074X   25075.81130150  .00006119  00000-0  42921-3 0  9999
2 44734  53.0524 273.1965 0001396  80.8131 279.3016 15.06407822295904
1 44734U 19074X   25076.27572871  .00003805  00000-0  27417-3 0  9992
2 44734  53.0522 271.1108 0001331  81.6463 278.4677 15.06405246296143
1 44734U 19074X   25076.27572871  .00003805  00000-0  27417-3 0  9992
2 44734  53.0522 271.1108 0001331  81.6463 278.4677 15.06405246295973
1 44734U 19074X   25076.74016269 -.00000360  00000-0 -52675-5 0  9999
2 44734  53.0535 269.0262 0001422  85.1811 274.9340 15.06392450296219
1 44734U 19074X   25076.74016269 -.00000360  00000-0 -52675-5 0  9999
2 44734  53.0535 269.0262 0001422  85.1811 274.9340 15.06392450296040
1 44734U 19074X   25077.53631574  .00000918  00000-0  80473-4 0  9992
2 44734  53.0545 265.4491 0001510 109.7800 250.3352 15.06405723296335
1 44734U 19074X   25077.53631574  .00000918  00000-0  80473-4 0  9992
2 44734  53.0545 265.4491 0001510 109.7800 250.3352 15.06405723296166
1 44734U 19074X   25077.80169886  .00002556  00000-0  19039-3 0  9993
2 44734  53.0534 264.2602 0001370  94.0485 266.0661 15.06413173296204
1 44734U 19074X   25078.53152423  .00001117  00000-0  93855-4 0  9994
2 44734  53.0536 260.9833 0001351 107.9725 252.1412 15.06394869296485
1 44734U 19074X   25078.53152423  .00001117  00000-0  93855-4 0  9994
2 44734  53.0536 260.9833 0001351 107.9725 252.1412 15.06394869296317
1 44734U 19074X   25078.79691062 -.00000831  00000-0 -36900-4 0  9991
2 44734  53.0540 259.7905 0001572 119.8101 240.3045 15.06393077296358
1 44734U 19074X   25079.52672282  .00000960  00000-0  83304-4 0  9997
2 44734  53.0538 256.5129 0001388 110.2010 249.9129 15.06402433296464
1 44734U 19074X   25079.79210873  .00003292  00000-0  23976-3 0  9999
2 44734  53.0535 255.3232 0001289 104.3580 255.7552 15.06407539296679
1 44734U 19074X   25079.79210873  .00003292  00000-0  23976-3 0  9999
2 44734  53.0535 255.3232 0001289 104.3580 255.7552 15.06407539296501
1 44734U 19074X   25080.45558442  .00002128  00000-0  16173-3 0  9999
2 44734  53.0540 252.3490 0001220  97.1069 263.0058 15.06396202296772
1 44734U 19074X   25080.45558442  .00002128  00000-0  16173-3 0  9999
2 44734  53.0540 252.3490 0001220  97.1069 263.0058 15.06396202296604
1 44734U 19074X   25080.78732172 -.00001156  00000-0 -58741-4 0  9999
2 44734  53.0535 250.8555 0001292 109.9961 250.1167 15.06388226296655
1 44734U 19074X   25081.45079017  .00001718  00000-0  13422-3 0  9994
2 44734  53.0541 247.8766 0001254 104.0879 256.0249 15.06399186296758
1 44734U 19074X   25081.71617332  .00004729  00000-0  33605-3 0  9991
2 44734  53.0536 246.6868 0001117  97.2020 262.9096 15.06409073296967
1 44734U 19074X   25081.71617332  .00004729  00000-0  33605-3 0  9991
2 44734  53.0536 246.6868 0001117  97.2020 262.9096 15.06409073296798
1 44734U 19074X   25082.18060374  .00003610  00000-0  26110-3 0  9992
2 44734  53.0510 244.6034 0001014  94.0309 266.0795 15.06401223297032
1 44734U 19074X   25082.57869176  .00001512  00000-0  12039-3 0  9996
2 44734  53.0540 242.8132 0001698 106.2090 253.9086 15.06394151296921
1 44734U 19074X   25082.84408219  .00000448  00000-0  48985-4 0  9990
2 44734  53.0532 241.6239 0001461  93.6111 266.5045 15.06389878297137
1 44734U 19074X   25082.84408219  .00000448  00000-0  48985-4 0  9990
2 44734  53.0532 241.6239 0001461  93.6111 266.5045 15.06389878296967
1 44734U 19074X   25083.44119545  .00005278  00000-0  37286-3 0  9995
2 44734  53.0539 238.9448 0001404  89.0954 271.0196 15.06410663297221
1 44734U 19074X   25083.44119545  .00005278  00000-0  37286-3 0  9995
2 44734  53.0539 238.9448 0001404  89.0954 271.0196 15.06410663297052
1 44734U 19074X   25083.70657448  .00013505  00000-0  92294-3 0  9995
2 44734  53.0503 237.7519 0001885  86.6777 273.4428 15.06432906297269
1 44734U 19074X   25083.70657448  .00013505  00000-0  92294-3 0  9995
2 44734  53.0503 237.7519 0001885  86.6777 273.4428 15.06432906297090
1 44734U 19074X   25084.70178755 -.00000891  00000-0 -40948-4 0  9991
2 44734  53.0542 233.2854 0001492  97.2718 262.8441 15.06393183297419
1 44734U 19074X   25084.70178755 -.00000891  00000-0 -40948-4 0  9991
2 44734  53.0542 233.2854 0001492  97.2718 262.8441 15.06393183297240
1 44734U 19074X   25085.09986700 -.00001601  00000-0 -88618-4 0  9997
2 44734  53.0540 231.4889 0001840  75.8736 284.2458 15.06395813297300
1 44734U 19074X   25085.82967374  .00008860  00000-0  61265-3 0  9994
2 44734  53.0511 228.2158 0001379  79.9287 280.1857 15.06416844297412
1 44734U 19074X   25087.82009048  .00005606  00000-0  39492-3 0  9993
2 44734  53.0516 219.2827 0002159  82.5872 277.5363 15.06404060297719
1 44734U 19074X   25088.08547580  .00003181  00000-0  23234-3 0  9993
2 44734  53.0583 218.0915 0000994  94.5564 265.5539 15.06400535297922
1 44734U 19074X   25088.08547580  .00003181  00000-0  23234-3 0  9993
2 44734  53.0583 218.0915 0000994  94.5564 265.5539 15.06400535297753
1 44734U 19074X   25088.68260376 -.00001451  00000-0 -78514-4 0  9996
2 44734  53.0542 215.4135 0001161  86.4833 273.6289 15.06404090298011
1 44734U 19074X   25088.68260376 -.00001451  00000-0 -78514-4 0  9996
2 44734  53.0542 215.4135 0001161  86.4833 273.6289 15.06404090297841
1 44734U 19074X   25089.54510895  .00017667  00000-0  12012-2 0  9999
2 44734  53.0540 211.5420 0001415  85.8873 274.2278 15.06424007298141
1 44734U 19074X   25089.61145416  .00018421  00000-0  12514-2 0  9996
2 44734  53.0535 211.2432 0001511  91.6842 268.4320 15.06427814297986
1 44734U 19074X   25089.67779927  .00019637  00000-0  13324-2 0  9992
2 44734  53.0539 210.9454 0001482  90.7269 269.3890 15.06432143297994
1 44734U 19074X   25090.54031208  .00000095  00000-0  25270-4 0  9996
2 44734  53.0546 207.0739 0001543 104.1742 255.9419 15.06396822298294
1 44734U 19074X   25090.60665951  .00002465  00000-0  18432-3 0  9995
2 44734  53.0543 206.7759 0001391  97.1364 262.9784 15.06396959298138
1 44734U 19074X   25091.53551248  .00020328  00000-0  13788-2 0  9997
2 44734  53.0545 202.6073 0001364 101.7606 258.3536 15.06422976298442
1 44734U 19074X   25091.53551248  .00020328  00000-0  13788-2 0  9997
2 44734  53.0545 202.6073 0001364 101.7606 258.3536 15.06422976298273
1 44734U 19074X   25091.99993692  .00011546  00000-0  79226-3 0  9992
2 44734  53.0541 200.5208 0001385  80.5557 279.5588 15.06423114298512
1 44734U 19074X   25092.53072090  .00021589  00000-0  14645-2 0  9994
2 44734  53.0537 198.1399 0001336  87.0004 273.1138 15.06381560298592
1 44734U 19074X   25092.59706858  .00026316  00000-0  17797-2 0  9990
2 44734  53.0534 197.8424 0001445  84.1313 275.9841 15.06385293298437
1 44734U 19074X   25093.52591247  .00028143  00000-0  18986-2 0  9999
2 44734  53.0531 193.6733 0001351  81.3065 278.8077 15.06441850298749
1 44734U 19074X   25093.59225736  .00027761  00000-0  18730-2 0  9995
2 44734  53.0532 193.3737 0001385  76.6650 283.4494 15.06444909298580
